{
  "links" : {
    "next" : "https://api.nasa.gov/neo/rest/v1/feed?start_date=1995-02-09&end_date=1995-02-09&detailed=true&api_key=t0TVs3DtDT2H8Oy2Zy8m2eVrNsAVKAexjcZXUckd",
    "prev" : "https://api.nasa.gov/neo/rest/v1/feed?start_date=1995-02-07&end_date=1995-02-07&detailed=true&api_key=t0TVs3DtDT2H8Oy2Zy8m2eVrNsAVKAexjcZXUckd",
    "self" : "https://api.nasa.gov/neo/rest/v1/feed?start_date=1995-02-08&end_date=1995-02-08&detailed=true&api_key=t0TVs3DtDT2H8Oy2Zy8m2eVrNsAVKAexjcZXUckd"
  },
  "element_count" : 3,
  "near_earth_objects" : {
    "1995-02-08" : [ {
      "links" : {
        "self" : "https://api.nasa.gov/neo/rest/v1/neo/2162854?api_key=t0TVs3DtDT2H8Oy2Zy8m2eVrNsAVKAexjcZXUckd"
      },
      "neo_reference_id" : "2162854",
      "name" : "162854 (2001 DE47)",
      "nasa_jpl_url" : "http://ssd.jpl.nasa.gov/sbdb.cgi?sstr=2162854",
      "absolute_magnitude_h" : 19.1,
      "estimated_diameter" : {
        "kilometers" : {
          "estimated_diameter_min" : 0.4023045798,
          "estimated_diameter_max" : 0.8995803882
        },
        "meters" : {
          "estimated_diameter_min" : 402.3045798343,
          "estimated_diameter_max" : 899.5803881691
        },
        "miles" : {
          "estimated_diameter_min" : 0.2499803991,
          "estimated_diameter_max" : 0.5589731654
        },
        "feet" : {
          "estimated_diameter_min" : 1319.8969577037,
          "estimated_diameter_max" : 2951.3793207207
        }
      },
      "is_potentially_hazardous_asteroid" : false,
      "close_approach_data" : [ {
        "close_approach_date" : "1995-02-08",
        "epoch_date_close_approach" : 792230400000,
        "relative_velocity" : {
          "kilometers_per_second" : "10.8299262895",
          "kilometers_per_hour" : "38987.734642195",
          "miles_per_hour" : "24225.4621169794"
        },
        "miss_distance" : {
          "astronomical" : "0.4306559914",
          "lunar" : "167.525177002",
          "kilometers" : "64425220",
          "miles" : "40031976"
        },
        "orbiting_body" : "Earth"
      } ],
      "orbital_data" : {
        "orbit_id" : "42",
        "orbit_determination_date" : "2017-04-06 09:26:24",
        "orbit_uncertainty" : "0",
        "minimum_orbit_intersection" : ".214004",
        "jupiter_tisserand_invariant" : "4.862",
        "epoch_osculation" : "2458000.5",
        "eccentricity" : ".1493579627014401",
        "semi_major_axis" : "1.32292378805863",
        "inclination" : "21.26523155355708",
        "ascending_node_longitude" : "122.4368331936925",
        "orbital_period" : "555.777121989752",
        "perihelion_distance" : "1.125334586264921",
        "perihelion_argument" : "297.7298536948962",
        "aphelion_distance" : "1.520512989852338",
        "perihelion_time" : "2457976.984646115842",
        "mean_anomaly" : "15.23187454710148",
        "mean_motion" : ".6477416679390378",
        "equinox" : "J2000"
      }
    }, {
      "links" : {
        "self" : "https://api.nasa.gov/neo/rest/v1/neo/3446396?api_key=t0TVs3DtDT2H8Oy2Zy8m2eVrNsAVKAexjcZXUckd"
      },
      "neo_reference_id" : "3446396",
      "name" : "(2009 CT5)",
      "nasa_jpl_url" : "http://ssd.jpl.nasa.gov/sbdb.cgi?sstr=3446396",
      "absolute_magnitude_h" : 18.8,
      "estimated_diameter" : {
        "kilometers" : {
          "estimated_diameter_min" : 0.4619074603,
          "estimated_diameter_max" : 1.0328564805
        },
        "meters" : {
          "estimated_diameter_min" : 461.9074602816,
          "estimated_diameter_max" : 1032.8564805039
        },
        "miles" : {
          "estimated_diameter_min" : 0.2870159005,
          "estimated_diameter_max" : 0.6417870641
        },
        "feet" : {
          "estimated_diameter_min" : 1515.4444719902,
          "estimated_diameter_max" : 3388.6368554964
        }
      },
      "is_potentially_hazardous_asteroid" : false,
      "close_approach_data" : [ {
        "close_approach_date" : "1995-02-08",
        "epoch_date_close_approach" : 792230400000,
        "relative_velocity" : {
          "kilometers_per_second" : "39.6053279147",
          "kilometers_per_hour" : "142579.1804929074",
          "miles_per_hour" : "88593.1580123846"
        },
        "miss_distance" : {
          "astronomical" : "0.3009631412",
          "lunar" : "117.0746612549",
          "kilometers" : "45023444",
          "miles" : "27976272"
        },
        "orbiting_body" : "Earth"
      } ],
      "orbital_data" : {
        "orbit_id" : "26",
        "orbit_determination_date" : "2017-04-06 09:01:21",
        "orbit_uncertainty" : "0",
        "minimum_orbit_intersection" : ".102643",
        "jupiter_tisserand_invariant" : "3.242",
        "epoch_osculation" : "2458000.5",
        "eccentricity" : ".8610933305709985",
        "semi_major_axis" : "1.982738584288127",
        "inclination" : "10.02263604097735",
        "ascending_node_longitude" : "163.2099234123562",
        "orbital_period" : "1019.756809422007",
        "perihelion_distance" : ".2754156130918373",
        "perihelion_argument" : "199.3714586963143",
        "aphelion_distance" : "3.690061555484416",
        "perihelion_time" : "2457894.226448097988",
        "mean_anomaly" : "37.51725738061909",
        "mean_motion" : ".3530253455272793",
        "equinox" : "J2000"
      }
    }, {
      "links" : {
        "self" : "https://api.nasa.gov/neo/rest/v1/neo/3764806?api_key=t0TVs3DtDT2H8Oy2Zy8m2eVrNsAVKAexjcZXUckd"
      },
      "neo_reference_id" : "3764806",
      "name" : "(2016 WU7)",
      "nasa_jpl_url" : "http://ssd.jpl.nasa.gov/sbdb.cgi?sstr=3764806",
      "absolute_magnitude_h" : 25.2,
      "estimated_diameter" : {
        "kilometers" : {
          "estimated_diameter_min" : 0.0242412481,
          "estimated_diameter_max" : 0.0542050786
        },
        "meters" : {
          "estimated_diameter_min" : 24.2412481101,
          "estimated_diameter_max" : 54.2050786336
        },
        "miles" : {
          "estimated_diameter_min" : 0.0150628086,
          "estimated_diameter_max" : 0.0336814639
        },
        "feet" : {
          "estimated_diameter_min" : 79.5316564495,
          "estimated_diameter_max" : 177.8381901842
        }
      },
      "is_potentially_hazardous_asteroid" : false,
      "close_approach_data" : [ {
        "close_approach_date" : "1995-02-08",
        "epoch_date_close_approach" : 792230400000,
        "relative_velocity" : {
          "kilometers_per_second" : "25.2112885836",
          "kilometers_per_hour" : "90760.6389007836",
          "miles_per_hour" : "56395.1314325452"
        },
        "miss_distance" : {
          "astronomical" : "0.4959739922",
          "lunar" : "192.933883667",
          "kilometers" : "74196656",
          "miles" : "46103664"
        },
        "orbiting_body" : "Earth"
      } ],
      "orbital_data" : {
        "orbit_id" : "4",
        "orbit_determination_date" : "2017-04-06 08:21:56",
        "orbit_uncertainty" : "6",
        "minimum_orbit_intersection" : ".0119773",
        "jupiter_tisserand_invariant" : "6.890",
        "epoch_osculation" : "2458000.5",
        "eccentricity" : ".4416943551013883",
        "semi_major_axis" : ".8375570081279065",
        "inclination" : "19.76759210755226",
        "ascending_node_longitude" : "243.614950945384",
        "orbital_period" : "279.9754763169043",
        "perihelion_distance" : ".4676128055622026",
        "perihelion_argument" : "41.6483224835708",
        "aphelion_distance" : "1.20750121069361",
        "perihelion_time" : "2457925.367527342473",
        "mean_anomaly" : "96.60735473164922",
        "mean_motion" : "1.285826904326849",
        "equinox" : "J2000"
      }
    } ]
  }
}